TQ3G_L_00010001-01
1 81401U 26853RX  26070.40854167  .00000000  00000+0  00000-0 0  9997
2 81401  98.6000   0.0000 0000000   0.0000   0.0000 14.27529684    18
TQ3G_L_00010001-02
1 81402U 23556PU  26070.40854167  .00000000  00000+0  00000-0 0  9995
2 81402  98.6000   0.0000 0000000   0.0000 120.0000 14.27529684    12
TQ3G_L_00010001-03
1 81403U 22609GZ  26070.40854167  .00000000  00000+0  00000-0 0  9994
2 81403  98.6000   0.0000 0000000   0.0000 240.0000 14.27529684    16
TQ3G_L_00010002-01
1 81404U 22319WI  26070.40854167  .00000000  00000+0  00000-0 0  9993
2 81404  98.6000  20.0000 0000000   0.0000  26.6667 14.27529684    16
TQ3G_L_00010002-02
1 81405U 24566ZP  26070.40854167  .00000000  00000+0  00000-0 0  9990
2 81405  98.6000  20.0000 0000000   0.0000 146.6667 14.27529684    10
TQ3G_L_00010002-03
1 81406U 25569ID  26070.40854167  .00000000  00000+0  00000-0 0  9995
2 81406  98.6000  20.0000 0000000   0.0000 266.6667 14.27529684    14
TQ3G_L_00010003-01
1 81407U 23339SS  26070.40854167  .00000000  00000+0  00000-0 0  9999
2 81407  98.6000  40.0000 0000000   0.0000  53.3333 14.27529684    18
TQ3G_L_00010003-02
1 81408U 25268OR  26070.40854167  .00000000  00000+0  00000-0 0  9993
2 81408  98.6000  40.0000 0000000   0.0000 173.3333 14.27529684    12
TQ3G_L_00010003-03
1 81409U 23519OD  26070.40854167  .00000000  00000+0  00000-0 0  9991
2 81409  98.6000  40.0000 0000000   0.0000 293.3333 14.27529684    16
TQ3G_L_00010004-01
1 81410U 24019NR  26070.40854167  .00000000  00000+0  00000-0 0  9999
2 81410  98.6000  60.0000 0000000   0.0000  80.0000 14.27529684    12
TQ3G_L_00010004-02
1 81411U 25504CL  26070.40854167  .00000000  00000+0  00000-0 0  9990
2 81411  98.6000  60.0000 0000000   0.0000 200.0000 14.27529684    17
TQ3G_L_00010004-03
1 81412U 24159ZI  26070.40854167  .00000000  00000+0  00000-0 0  9996
2 81412  98.6000  60.0000 0000000   0.0000 320.0000 14.27529684    11
TQ3G_L_00010005-01
1 81413U 26145ET  26070.40854167  .00000000  00000+0  00000-0 0  9994
2 81413  98.6000  80.0000 0000000   0.0000 106.6667 14.27529684    11
TQ3G_L_00010005-02
1 81414U 25379IH  26070.40854167  .00000000  00000+0  00000-0 0  9993
2 81414  98.6000  80.0000 0000000   0.0000 226.6667 14.27529684    15
TQ3G_L_00010005-03
1 81415U 24672YT  26070.40854167  .00000000  00000+0  00000-0 0  9999
2 81415  98.6000  80.0000 0000000   0.0000 346.6667 14.27529684    19
TQ3G_L_00010006-01
1 81416U 24023VX  26070.40854167  .00000000  00000+0  00000-0 0  9990
2 81416  98.6000 100.0000 0000000   0.0000 133.3333 14.27529684    14
TQ3G_L_00010006-02
1 81417U 26478ZG  26070.40854167  .00000000  00000+0  00000-0 0  9997
2 81417  98.6000 100.0000 0000000   0.0000 253.3333 14.27529684    18
TQ3G_L_00010006-03
1 81418U 22328OY  26070.40854167  .00000000  00000+0  00000-0 0  9998
2 81418  98.6000 100.0000 0000000   0.0000  13.3333 14.27529684    13
TQ3G_L_00010007-01
1 81419U 24361YD  26070.40854167  .00000000  00000+0  00000-0 0  9998
2 81419  98.6000 120.0000 0000000   0.0000 160.0000 14.27529684    17
TQ3G_L_00010007-02
1 81420U 25220WP  26070.40854167  .00000000  00000+0  00000-0 0  9995
2 81420  98.6000 120.0000 0000000   0.0000 280.0000 14.27529684    12
TQ3G_L_00010007-03
1 81421U 22855RN  26070.40854167  .00000000  00000+0  00000-0 0  9997
2 81421  98.6000 120.0000 0000000   0.0000  40.0000 14.27529684    17
TQ3G_L_00010008-01
1 81422U 24676TR  26070.40854167  .00000000  00000+0  00000-0 0  9991
2 81422  98.6000 140.0000 0000000   0.0000 186.6667 14.27529684    16
TQ3G_L_00010008-02
1 81423U 24762LF  26070.40854167  .00000000  00000+0  00000-0 0  9998
2 81423  98.6000 140.0000 0000000   0.0000 306.6667 14.27529684    11
TQ3G_L_00010008-03
1 81424U 24842IV  26070.40854167  .00000000  00000+0  00000-0 0  9998
2 81424  98.6000 140.0000 0000000   0.0000  66.6667 14.27529684    15
TQ3G_L_00010009-01
1 81425U 23919CA  26070.40854167  .00000000  00000+0  00000-0 0  9993
2 81425  98.6000 160.0000 0000000   0.0000 213.3333 14.27529684    19
TQ3G_L_00010009-02
1 81426U 24658TY  26070.40854167  .00000000  00000+0  00000-0 0  9995
2 81426  98.6000 160.0000 0000000   0.0000 333.3333 14.27529684    13
TQ3G_L_00010009-03
1 81427U 23320YS  26070.40854167  .00000000  00000+0  00000-0 0  9991
2 81427  98.6000 160.0000 0000000   0.0000  93.3333 14.27529684    17
TQ3G_L_00010010-01
1 81428U 23114J   26070.40854167  .00000000  00000+0  00000-0 0  9993
2 81428  98.6000 180.0000 0000000   0.0000 240.0000 14.27529684    12
TQ3G_L_00010010-02
1 81429U 25884PW  26070.40854167  .00000000  00000+0  00000-0 0  9990
2 81429  98.6000 180.0000 0000000   0.0000   0.0000 14.27529684    17
TQ3G_L_00010010-03
1 81430U 22584VM  26070.40854167  .00000000  00000+0  00000-0 0  9996
2 81430  98.6000 180.0000 0000000   0.0000 120.0000 14.27529684    12
TQ3G_L_00010011-01
1 81431U 23220ZH  26070.40854167  .00000000  00000+0  00000-0 0  9995
2 81431  98.6000 200.0000 0000000   0.0000 266.6667 14.27529684    12
TQ3G_L_00010011-02
1 81432U 25453RQ  26070.40854167  .00000000  00000+0  00000-0 0  9996
2 81432  98.6000 200.0000 0000000   0.0000  26.6667 14.27529684    17
TQ3G_L_00010011-03
1 81433U 25394NI  26070.40854167  .00000000  00000+0  00000-0 0  9991
2 81433  98.6000 200.0000 0000000   0.0000 146.6667 14.27529684    11
TQ3G_L_00010012-01
1 81434U 26474P   26070.40854167  .00000000  00000+0  00000-0 0  9992
2 81434  98.6000 220.0000 0000000   0.0000 293.3333 14.27529684    14
TQ3G_L_00010012-02
1 81435U 22795CZ  26070.40854167  .00000000  00000+0  00000-0 0  9995
2 81435  98.6000 220.0000 0000000   0.0000  53.3333 14.27529684    19
TQ3G_L_00010012-03
1 81436U 26733KR  26070.40854167  .00000000  00000+0  00000-0 0  9992
2 81436  98.6000 220.0000 0000000   0.0000 173.3333 14.27529684    13
TQ3G_L_00010013-01
1 81437U 24604EZ  26070.40854167  .00000000  00000+0  00000-0 0  9998
2 81437  98.6000 240.0000 0000000   0.0000 320.0000 14.27529684    18
TQ3G_L_00010013-02
1 81438U 24540RI  26070.40854167  .00000000  00000+0  00000-0 0  9998
2 81438  98.6000 240.0000 0000000   0.0000  80.0000 14.27529684    12
TQ3G_L_00010013-03
1 81439U 25204GO  26070.40854167  .00000000  00000+0  00000-0 0  9997
2 81439  98.6000 240.0000 0000000   0.0000 200.0000 14.27529684    17
TQ3G_L_00010014-01
1 81440U 26705A   26070.40854167  .00000000  00000+0  00000-0 0  9996
2 81440  98.6000 260.0000 0000000   0.0000 346.6667 14.27529684    17
TQ3G_L_00010014-02
1 81441U 26512CA  26070.40854167  .00000000  00000+0  00000-0 0  9993
2 81441  98.6000 260.0000 0000000   0.0000 106.6667 14.27529684    12
TQ3G_L_00010014-03
1 81442U 26508YY  26070.40854167  .00000000  00000+0  00000-0 0  9999
2 81442  98.6000 260.0000 0000000   0.0000 226.6667 14.27529684    16
TQ3G_L_00010015-01
1 81443U 24738ZD  26070.40854167  .00000000  00000+0  00000-0 0  9993
2 81443  98.6000 280.0000 0000000   0.0000  13.3333 14.27529684    10
TQ3G_L_00010015-02
1 81444U 26740KU  26070.40854167  .00000000  00000+0  00000-0 0  9999
2 81444  98.6000 280.0000 0000000   0.0000 133.3333 14.27529684    14
TQ3G_L_00010015-03
1 81445U 23380KB  26070.40854167  .00000000  00000+0  00000-0 0  9997
2 81445  98.6000 280.0000 0000000   0.0000 253.3333 14.27529684    18
TQ3G_L_00010016-01
1 81446U 22974TO  26070.40854167  .00000000  00000+0  00000-0 0  9996
2 81446  98.6000 300.0000 0000000   0.0000  40.0000 14.27529684    14
TQ3G_L_00010016-02
1 81447U 26517DU  26070.40854167  .00000000  00000+0  00000-0 0  9994
2 81447  98.6000 300.0000 0000000   0.0000 160.0000 14.27529684    18
TQ3G_L_00010016-03
1 81448U 24097HO  26070.40854167  .00000000  00000+0  00000-0 0  9996
2 81448  98.6000 300.0000 0000000   0.0000 280.0000 14.27529684    12
TQ3G_L_00010017-01
1 81449U 24940PR  26070.40854167  .00000000  00000+0  00000-0 0  9994
2 81449  98.6000 320.0000 0000000   0.0000  66.6667 14.27529684    12
TQ3G_L_00010017-02
1 81450U 25902NH  26070.40854167  .00000000  00000+0  00000-0 0  9995
2 81450  98.6000 320.0000 0000000   0.0000 186.6667 14.27529684    17
TQ3G_L_00010017-03
1 81451U 26754JR  26070.40854167  .00000000  00000+0  00000-0 0  9992
2 81451  98.6000 320.0000 0000000   0.0000 306.6667 14.27529684    12
TQ3G_L_00010018-01
1 81452U 25512SO  26070.40854167  .00000000  00000+0  00000-0 0  9994
2 81452  98.6000 340.0000 0000000   0.0000  93.3333 14.27529684    15
TQ3G_L_00010018-02
1 81453U 22430VG  26070.40854167  .00000000  00000+0  00000-0 0  9991
2 81453  98.6000 340.0000 0000000   0.0000 213.3333 14.27529684    10
TQ3G_L_00010018-03
1 81454U 24280XV  26070.40854167  .00000000  00000+0  00000-0 0  9997
2 81454  98.6000 340.0000 0000000   0.0000 333.3333 14.27529684    14
